{"type": "FeatureCollection", "features": [ {"type": "Feature", "properties": {"norad_id": 41836, "name": "HIMAWARI-9", "group": "weather", "lat": 0.019268999516099988, "lon": 156.17430184916518, "alt_km": 35790.34136930071, "timestamp": "2025-12-26T18:39:31.915512+00:00", "meta": {"OBJECT_NAME": "HIMAWARI-9", "OBJECT_ID": "2016-064A", "EPOCH": "2025-12-26T00:44:38.656608", "MEAN_MOTION": 1.00271993, "ECCENTRICITY": 0.00010793, "INCLINATION": 0.0124, "RA_OF_ASC_NODE": 80.1849, "ARG_OF_PERICENTER": 234.8379, "MEAN_ANOMALY": 291.7052, "EPHEMERIS_TYPE": 0, "CLASSIFICATION_TYPE": "U", "NORAD_CAT_ID": 41836, "ELEMENT_SET_NO": 999, "REV_AT_EPOCH": 3347, "BSTAR": 0, "MEAN_MOTION_DOT": -2.53e-06, "MEAN_MOTION_DDOT": 0}, "tle": {"line1": "1 41836U 16064A   25360.03100297 -.00000253  00000+0  00000+0 0  9996", "line2": "2 41836   0.0124  80.1849 0001079 234.8379 291.7052  1.00271993 33479"}}, "geometry": {"type": "Point", "coordinates": [156.17430184916518, 0.019268999516099988]}}, {"type": "Feature", "properties": {"norad_id": 41866, "name": "GOES 16", "group": "weather", "lat": -0.004799180148283036, "lon": -89.26535589787896, "alt_km": 35772.29796926934, "timestamp": "2025-12-26T18:39:31.915524+00:00", "meta": {"OBJECT_NAME": "GOES 16", "OBJECT_ID": "2016-071A", "EPOCH": "2025-12-26T13:19:40.740960", "MEAN_MOTION": 1.00271665, "ECCENTRICITY": 0.00032706, "INCLINATION": 0.0794, "RA_OF_ASC_NODE": 100.8251, "ARG_OF_PERICENTER": 166.7949, "MEAN_ANOMALY": 282.9377, "EPHEMERIS_TYPE": 0, "CLASSIFICATION_TYPE": "U", "NORAD_CAT_ID": 41866, "ELEMENT_SET_NO": 999, "REV_AT_EPOCH": 3337, "BSTAR": 0, "MEAN_MOTION_DOT": -6.9e-07, "MEAN_MOTION_DDOT": 0}, "tle": {"line1": "1 41866U 16071A   25360.55533265 -.00000069  00000+0  00000+0 0  9994", "line2": "2 41866   0.0794 100.8251 0003270 166.7949 282.9377  1.00271665 33370"}}, "geometry": {"type": "Point", "coordinates": [-89.26535589787896, -0.004799180148283036]}}, {"type": "Feature", "properties": {"norad_id": 41882, "name": "FENGYUN 4A", "group": "weather", "lat": 1.5876873936978706, "lon": 138.88549963735682, "alt_km": 35787.47336765952, "timestamp": "2025-12-26T18:39:31.915537+00:00", "meta": {"OBJECT_NAME": "FENGYUN 4A", "OBJECT_ID": "2016-077A", "EPOCH": "2025-12-26T09:22:21.494784", "MEAN_MOTION": 1.00262391, "ECCENTRICITY": 0.00045342, "INCLINATION": 1.8816, "RA_OF_ASC_NODE": 82.2577, "ARG_OF_PERICENTER": 143.1389, "MEAN_ANOMALY": 133.8992, "EPHEMERIS_TYPE": 0, "CLASSIFICATION_TYPE": "U", "NORAD_CAT_ID": 41882, "ELEMENT_SET_NO": 999, "REV_AT_EPOCH": 3319, "BSTAR": 0, "MEAN_MOTION_DOT": -3.36e-06, "MEAN_MOTION_DDOT": 0}, "tle": {"line1": "1 41882U 16077A   25360.39052656 -.00000336  00000+0  00000+0 0  9997", "line2": "2 41882   1.8816  82.2577 0004534 143.1389 133.8992  1.00262391 33190"}}, "geometry": {"type": "Point", "coordinates": [138.88549963735682, 1.5876873936978706]}}, {"type": "Feature", "properties": {"norad_id": 41884, "name": "CYGFM05", "group": "weather", "lat": -29.10274955960021, "lon": -171.7815868335454, "alt_km": 420.9522531867551, "timestamp": "2025-12-26T18:39:31.915548+00:00", "meta": {"OBJECT_NAME": "CYGFM05", "OBJECT_ID": "2016-078A", "EPOCH": "2025-12-26T06:48:05.114592", "MEAN_MOTION": 15.48149992, "ECCENTRICITY": 0.00104458, "INCLINATION": 34.9603, "RA_OF_ASC_NODE": 318.6293, "ARG_OF_PERICENTER": 299.4852, "MEAN_ANOMALY": 60.4828, "EPHEMERIS_TYPE": 0, "CLASSIFICATION_TYPE": "U", "NORAD_CAT_ID": 41884, "ELEMENT_SET_NO": 999, "REV_AT_EPOCH": 50186, "BSTAR": 0.00037991921, "MEAN_MOTION_DOT": 0.00020625, "MEAN_MOTION_DDOT": 0}, "tle": {"line1": "1 41884U 16078A   25360.28339253  .00020625  00000+0  37992-3 0  9995", "line2": "2 41884  34.9603 318.6293 0010445 299.4852  60.4828 15.48149992501867"}}, "geometry": {"type": "Point", "coordinates": [-171.7815868335454, -29.10274955960021]}}, {"type": "Feature", "properties": {"norad_id": 41885, "name": "CYGFM04", "group": "weather", "lat": -33.985446158099556, "lon": -175.2619224550604, "alt_km": 413.9949074272763, "timestamp": "2025-12-26T18:39:31.915559+00:00", "meta": {"OBJECT_NAME": "CYGFM04", "OBJECT_ID": "2016-078B", "EPOCH": "2025-12-26T05:11:40.920576", "MEAN_MOTION": 15.50945052, "ECCENTRICITY": 0.00089688, "INCLINATION": 34.9347, "RA_OF_ASC_NODE": 293.4499, "ARG_OF_PERICENTER": 323.6494, "MEAN_ANOMALY": 36.3618, "EPHEMERIS_TYPE": 0, "CLASSIFICATION_TYPE": "U", "NORAD_CAT_ID": 41885, "ELEMENT_SET_NO": 999, "REV_AT_EPOCH": 50203, "BSTAR": 0.00038816958, "MEAN_MOTION_DOT": 0.00023266, "MEAN_MOTION_DDOT": 0}, "tle": {"line1": "1 41885U 16078B   25360.21644584  .00023266  00000+0  38817-3 0  9996", "line2": "2 41885  34.9347 293.4499 0008968 323.6494  36.3618 15.50945052502033"}}, "geometry": {"type": "Point", "coordinates": [-175.2619224550604, -33.985446158099556]}}, {"type": "Feature", "properties": {"norad_id": 41886, "name": "CYGFM02", "group": "weather", "lat": -10.369458357846643, "lon": -87.28521764233807, "alt_km": 402.81455917382664, "timestamp": "2025-12-26T18:39:31.915570+00:00", "meta": {"OBJECT_NAME": "CYGFM02", "OBJECT_ID": "2016-078C", "EPOCH": "2025-12-26T04:50:47.956416", "MEAN_MOTION": 15.52365862, "ECCENTRICITY": 0.00105906, "INCLINATION": 34.9437, "RA_OF_ASC_NODE": 291.6942, "ARG_OF_PERICENTER": 325.3429, "MEAN_ANOMALY": 34.6603, "EPHEMERIS_TYPE": 0, "CLASSIFICATION_TYPE": "U", "NORAD_CAT_ID": 41886, "ELEMENT_SET_NO": 999, "REV_AT_EPOCH": 50216, "BSTAR": 0.00040372119, "MEAN_MOTION_DOT": 0.00025494, "MEAN_MOTION_DDOT": 0}, "tle": {"line1": "1 41886U 16078C   25360.20194394  .00025494  00000+0  40372-3 0  9999", "line2": "2 41886  34.9437 291.6942 0010590 325.3429  34.6603 15.52365862502164"}}, "geometry": {"type": "Point", "coordinates": [-87.28521764233807, -10.369458357846643]}}, {"type": "Feature", "properties": {"norad_id": 41887, "name": "CYGFM01", "group": "weather", "lat": -25.072824300581, "lon": -84.42218920295386, "alt_km": 415.1523531533512, "timestamp": "2025-12-26T18:39:31.915580+00:00", "meta": {"OBJECT_NAME": "CYGFM01", "OBJECT_ID": "2016-078D", "EPOCH": "2025-12-26T14:13:22.088928", "MEAN_MOTION": 15.48759806, "ECCENTRICITY": 0.00102008, "INCLINATION": 34.9435, "RA_OF_ASC_NODE": 318.8584, "ARG_OF_PERICENTER": 294.2358, "MEAN_ANOMALY": 65.7298, "EPHEMERIS_TYPE": 0, "CLASSIFICATION_TYPE": "U", "NORAD_CAT_ID": 41887, "ELEMENT_SET_NO": 999, "REV_AT_EPOCH": 50185, "BSTAR": 0.00041171202, "MEAN_MOTION_DOT": 0.00022845, "MEAN_MOTION_DDOT": 0}, "tle": {"line1": "1 41887U 16078D   25360.59261677  .00022845  00000+0  41171-3 0  9996", "line2": "2 41887  34.9435 318.8584 0010200 294.2358  65.7298 15.48759806501850"}}, "geometry": {"type": "Point", "coordinates": [-84.42218920295386, -25.072824300581]}}, {"type": "Feature", "properties": {"norad_id": 41888, "name": "CYGFM08", "group": "weather", "lat": 30.623134405197938, "lon": -1.5641980173754861, "alt_km": 412.5922242670513, "timestamp": "2025-12-26T18:39:31.915591+00:00", "meta": {"OBJECT_NAME": "CYGFM08", "OBJECT_ID": "2016-078E", "EPOCH": "2025-12-26T04:28:38.500608", "MEAN_MOTION": 15.4998199, "ECCENTRICITY": 0.00113412, "INCLINATION": 34.946, "RA_OF_ASC_NODE": 304.349, "ARG_OF_PERICENTER": 314.88, "MEAN_ANOMALY": 45.1001, "EPHEMERIS_TYPE": 0, "CLASSIFICATION_TYPE": "U", "NORAD_CAT_ID": 41888, "ELEMENT_SET_NO": 999, "REV_AT_EPOCH": 50202, "BSTAR": 0.00037787487, "MEAN_MOTION_DOT": 0.00021899, "MEAN_MOTION_DDOT": 0}, "tle": {"line1": "1 41888U 16078E   25360.18655672  .00021899  00000+0  37787-3 0  9990", "line2": "2 41888  34.9460 304.3490 0011341 314.8800  45.1001 15.49981990502029"}}, "geometry": {"type": "Point", "coordinates": [-1.5641980173754861, 30.623134405197938]}}, {"type": "Feature", "properties": {"norad_id": 41890, "name": "CYGFM07", "group": "weather", "lat": 34.37513628325867, "lon": 7.774257290262503, "alt_km": 410.2647557242617, "timestamp": "2025-12-26T18:39:31.915602+00:00", "meta": {"OBJECT_NAME": "CYGFM07", "OBJECT_ID": "2016-078G", "EPOCH": "2025-12-26T12:08:00.126528", "MEAN_MOTION": 15.50595573, "ECCENTRICITY": 0.00090832, "INCLINATION": 34.9475, "RA_OF_ASC_NODE": 291.1596, "ARG_OF_PERICENTER": 332.0459, "MEAN_ANOMALY": 27.9775, "EPHEMERIS_TYPE": 0, "CLASSIFICATION_TYPE": "U", "NORAD_CAT_ID": 41890, "ELEMENT_SET_NO": 999, "REV_AT_EPOCH": 50209, "BSTAR": 0.00039275292, "MEAN_MOTION_DOT": 0.00023249, "MEAN_MOTION_DDOT": 0}, "tle": {"line1": "1 41890U 16078G   25360.50555702  .00023249  00000+0  39275-3 0  9997", "line2": "2 41890  34.9475 291.1596 0009083 332.0459  27.9775 15.50595573502093"}}, "geometry": {"type": "Point", "coordinates": [7.774257290262503, 34.37513628325867]}}, {"type": "Feature", "properties": {"norad_id": 41891, "name": "CYGFM03", "group": "weather", "lat": -34.92338256720794, "lon": -159.00173262957622, "alt_km": 413.5918268140931, "timestamp": "2025-12-26T18:39:31.915612+00:00", "meta": {"OBJECT_NAME": "CYGFM03", "OBJECT_ID": "2016-078H", "EPOCH": "2025-12-26T05:08:17.982528", "MEAN_MOTION": 15.50474136, "ECCENTRICITY": 0.00090668, "INCLINATION": 34.943, "RA_OF_ASC_NODE": 295.0003, "ARG_OF_PERICENTER": 316.561, "MEAN_ANOMALY": 43.4397, "EPHEMERIS_TYPE": 0, "CLASSIFICATION_TYPE": "U", "NORAD_CAT_ID": 41891, "ELEMENT_SET_NO": 999, "REV_AT_EPOCH": 50202, "BSTAR": 0.00038802061, "MEAN_MOTION_DOT": 0.00022868, "MEAN_MOTION_DDOT": 0}, "tle": {"line1": "1 41891U 16078H   25360.21409702  .00022868  00000+0  38802-3 0  9995", "line2": "2 41891  34.9430 295.0003 0009066 316.5610  43.4397 15.50474136502025"}}, "geometry": {"type": "Point", "coordinates": [-159.00173262957622, -34.92338256720794]}}]}